STARLINK-33929          
1 64188U 25113U   26065.48409992  .00025262  00000+0  86188-3 0  9993
2 64188  53.1594 106.0647 0001498  57.9917 302.1230 15.30210439 44579
STARLINK-33872          
1 64189U 25113V   26065.50931349  .00029673  00000+0  10100-2 0  9993
2 64189  53.1587 105.5127 0001282  80.8181 279.2965 15.30199145 44544
STARLINK-34214          
1 64190U 25113W   26065.36613318  .00015443  00000+0  53225-3 0  9998
2 64190  53.1609 106.7486 0001118 100.1521 259.9606 15.30210892 44555
STARLINK-34222          
1 64191U 25113X   26065.50203891  .00028009  00000+0  95429-3 0  9990
2 64191  53.1597 106.1764 0001110  73.1212 286.9911 15.30198321 44532
STARLINK-34265          
1 64192U 25113Y   26065.35874951  .00021780  00000+0  74530-3 0  9994
2 64192  53.1593 106.7108 0001553  67.5356 292.5809 15.30200788 44512
STARLINK-34245          
1 64193U 25113Z   26065.37446354  .00023402  00000+0  79967-3 0  9991
2 64193  53.1591 106.0971 0001076  69.0767 291.0349 15.30203497 44529
STARLINK-34237          
1 64194U 25113AA  26065.53569613  .00036167  00000+0  12270-2 0  9999
2 64194  53.1572 105.6760 0001266  74.7215 285.3926 15.30208529 44542
STARLINK-33857          
1 64195U 25113AB  26065.52830928  .00037539  00000+0  12728-2 0  9991
2 64195  53.1569 105.6319 0001231  83.0514 277.0627 15.30207936 44543
STARLINK-34173          
1 64196U 25113AC  26065.54624973  .00025136  00000+0  85876-3 0  9990
2 64196  53.1566 105.7464 0000935 103.5333 256.5772 15.30168197 44582
STARLINK-33966          
1 64203U 25117A   26065.40385521  .00048764  00000+0  16468-2 0  9993
2 64203  53.1609  54.7897 0001835 105.3317 254.7886 15.30217931 44053
STARLINK-34331          
1 64204U 25117B   26065.36281060  .00025248  00000+0  86163-3 0  9994
2 64204  53.1610  55.2499 0001393  77.2018 282.9138 15.30202272 44015
STARLINK-34251          
1 64205U 25117C   26065.23534353  .00024714  00000+0  84344-3 0  9993
2 64205  53.1612  55.8713 0001185 119.8505 240.2613 15.30212262 43997
STARLINK-34311          
1 64206U 25117D   26065.36914268  .00016916  00000+0  58190-3 0  9990
2 64206  53.1610  55.2877 0001226  86.7881 273.3260 15.30202507 44049
STARLINK-34324          
1 64207U 25117E   26065.33537005  .00029915  00000+0  10179-2 0  9995
2 64207  53.1592  55.0779 0001265  90.5737 269.5409 15.30206173 42980
STARLINK-34327          
1 64208U 25117F   26065.25528156  .00026095  00000+0  88965-3 0  9999
2 64208  53.1589  55.2877 0001471  86.6653 273.4516 15.30215275 42964
STARLINK-33944          
1 64209U 25117G   26065.26478211  .00018756  00000+0  64376-3 0  9992
2 64209  53.1581  55.3554 0001319  87.8811 272.2341 15.30201269 44031
