[{"OBJECT_NAME":"STARLINK-33929","OBJECT_ID":"2025-113U","EPOCH":"2026-03-06T11:37:06.233088","MEAN_MOTION":15.30210439,"ECCENTRICITY":0.00014986,"INCLINATION":53.1594,"RA_OF_ASC_NODE":106.0647,"ARG_OF_PERICENTER":57.9917,"MEAN_ANOMALY":302.123,"EPHEMERIS_TYPE":0,"CLASSIFICATION_TYPE":"U","NORAD_CAT_ID":64188,"ELEMENT_SET_NO":999,"REV_AT_EPOCH":4457,"BSTAR":0.00086187576,"MEAN_MOTION_DOT":0.00025262,"MEAN_MOTION_DDOT":0},{"OBJECT_NAME":"STARLINK-33872","OBJECT_ID":"2025-113V","EPOCH":"2026-03-06T12:13:24.685536","MEAN_MOTION":15.30199145,"ECCENTRICITY":0.00012822,"INCLINATION":53.1587,"RA_OF_ASC_NODE":105.5127,"ARG_OF_PERICENTER":80.8181,"MEAN_ANOMALY":279.2965,"EPHEMERIS_TYPE":0,"CLASSIFICATION_TYPE":"U","NORAD_CAT_ID":64189,"ELEMENT_SET_NO":999,"REV_AT_EPOCH":4454,"BSTAR":0.0010099891,"MEAN_MOTION_DOT":0.00029673,"MEAN_MOTION_DDOT":0},{"OBJECT_NAME":"STARLINK-34214","OBJECT_ID":"2025-113W","EPOCH":"2026-03-06T08:47:13.906752","MEAN_MOTION":15.30210892,"ECCENTRICITY":0.00011184,"INCLINATION":53.1609,"RA_OF_ASC_NODE":106.7486,"ARG_OF_PERICENTER":100.1521,"MEAN_ANOMALY":259.9606,"EPHEMERIS_TYPE":0,"CLASSIFICATION_TYPE":"U","NORAD_CAT_ID":64190,"ELEMENT_SET_NO":999,"REV_AT_EPOCH":4455,"BSTAR":0.00053225373,"MEAN_MOTION_DOT":0.00015443,"MEAN_MOTION_DDOT":0},{"OBJECT_NAME":"STARLINK-34222","OBJECT_ID":"2025-113X","EPOCH":"2026-03-06T12:02:56.161824","MEAN_MOTION":15.30198321,"ECCENTRICITY":0.00011106,"INCLINATION":53.1597,"RA_OF_ASC_NODE":106.1764,"ARG_OF_PERICENTER":73.1212,"MEAN_ANOMALY":286.9911,"EPHEMERIS_TYPE":0,"CLASSIFICATION_TYPE":"U","NORAD_CAT_ID":64191,"ELEMENT_SET_NO":999,"REV_AT_EPOCH":4453,"BSTAR":0.00095429134,"MEAN_MOTION_DOT":0.00028009,"MEAN_MOTION_DDOT":0},{"OBJECT_NAME":"STARLINK-34265","OBJECT_ID":"2025-113Y","EPOCH":"2026-03-06T08:36:35.957664","MEAN_MOTION":15.30200788,"ECCENTRICITY":0.00015531,"INCLINATION":53.1593,"RA_OF_ASC_NODE":106.7108,"ARG_OF_PERICENTER":67.5356,"MEAN_ANOMALY":292.5809,"EPHEMERIS_TYPE":0,"CLASSIFICATION_TYPE":"U","NORAD_CAT_ID":64192,"ELEMENT_SET_NO":999,"REV_AT_EPOCH":4451,"BSTAR":0.00074529556,"MEAN_MOTION_DOT":0.0002178,"MEAN_MOTION_DDOT":0},{"OBJECT_NAME":"STARLINK-34245","OBJECT_ID":"2025-113Z","EPOCH":"2026-03-06T08:59:13.649856","MEAN_MOTION":15.30203497,"ECCENTRICITY":0.00010764,"INCLINATION":53.1591,"RA_OF_ASC_NODE":106.0971,"ARG_OF_PERICENTER":69.0767,"MEAN_ANOMALY":291.0349,"EPHEMERIS_TYPE":0,"CLASSIFICATION_TYPE":"U","NORAD_CAT_ID":64193,"ELEMENT_SET_NO":999,"REV_AT_EPOCH":4452,"BSTAR":0.00079967088,"MEAN_MOTION_DOT":0.00023402,"MEAN_MOTION_DDOT":0},{"OBJECT_NAME":"STARLINK-34237","OBJECT_ID":"2025-113AA","EPOCH":"2026-03-06T12:51:24.145632","MEAN_MOTION":15.30208529,"ECCENTRICITY":0.00012661,"INCLINATION":53.1572,"RA_OF_ASC_NODE":105.676,"ARG_OF_PERICENTER":74.7215,"MEAN_ANOMALY":285.3926,"EPHEMERIS_TYPE":0,"CLASSIFICATION_TYPE":"U","NORAD_CAT_ID":64194,"ELEMENT_SET_NO":999,"REV_AT_EPOCH":4454,"BSTAR":0.00122697,"MEAN_MOTION_DOT":0.00036167,"MEAN_MOTION_DDOT":0},{"OBJECT_NAME":"STARLINK-33857","OBJECT_ID":"2025-113AB","EPOCH":"2026-03-06T12:40:45.921792","MEAN_MOTION":15.30207936,"ECCENTRICITY":0.00012311,"INCLINATION":53.1569,"RA_OF_ASC_NODE":105.6319,"ARG_OF_PERICENTER":83.0514,"MEAN_ANOMALY":277.0627,"EPHEMERIS_TYPE":0,"CLASSIFICATION_TYPE":"U","NORAD_CAT_ID":64195,"ELEMENT_SET_NO":999,"REV_AT_EPOCH":4454,"BSTAR":0.0012728487,"MEAN_MOTION_DOT":0.00037539,"MEAN_MOTION_DDOT":0},{"OBJECT_NAME":"STARLINK-34173","OBJECT_ID":"2025-113AC","EPOCH":"2026-03-06T13:06:35.976672","MEAN_MOTION":15.30168197,"ECCENTRICITY":9.351e-5,"INCLINATION":53.1566,"RA_OF_ASC_NODE":105.7464,"ARG_OF_PERICENTER":103.5333,"MEAN_ANOMALY":256.5772,"EPHEMERIS_TYPE":0,"CLASSIFICATION_TYPE":"U","NORAD_CAT_ID":64196,"ELEMENT_SET_NO":999,"REV_AT_EPOCH":4458,"BSTAR":0.00085876319,"MEAN_MOTION_DOT":0.00025136,"MEAN_MOTION_DDOT":0},{"OBJECT_NAME":"STARLINK-33966","OBJECT_ID":"2025-117A","EPOCH":"2026-03-06T09:41:33.090144","MEAN_MOTION":15.30217931,"ECCENTRICITY":0.00018353,"INCLINATION":53.1609,"RA_OF_ASC_NODE":54.7897,"ARG_OF_PERICENTER":105.3317,"MEAN_ANOMALY":254.7886,"EPHEMERIS_TYPE":0,"CLASSIFICATION_TYPE":"U","NORAD_CAT_ID":64203,"ELEMENT_SET_NO":999,"REV_AT_EPOCH":4405,"BSTAR":0.0016468397,"MEAN_MOTION_DOT":0.00048764,"MEAN_MOTION_DDOT":0},{"OBJECT_NAME":"STARLINK-34331","OBJECT_ID":"2025-117B","EPOCH":"2026-03-06T08:42:26.835840","MEAN_MOTION":15.30202272,"ECCENTRICITY":0.00013935,"INCLINATION":53.161,"RA_OF_ASC_NODE":55.2499,"ARG_OF_PERICENTER":77.2018,"MEAN_ANOMALY":282.9138,"EPHEMERIS_TYPE":0,"CLASSIFICATION_TYPE":"U","NORAD_CAT_ID":64204,"ELEMENT_SET_NO":999,"REV_AT_EPOCH":4401,"BSTAR":0.00086163294,"MEAN_MOTION_DOT":0.00025248,"MEAN_MOTION_DDOT":0},{"OBJECT_NAME":"STARLINK-34251","OBJECT_ID":"2025-117C","EPOCH":"2026-03-06T05:38:53.680992","MEAN_MOTION":15.30212262,"ECCENTRICITY":0.00011854,"INCLINATION":53.1612,"RA_OF_ASC_NODE":55.8713,"ARG_OF_PERICENTER":119.8505,"MEAN_ANOMALY":240.2613,"EPHEMERIS_TYPE":0,"CLASSIFICATION_TYPE":"U","NORAD_CAT_ID":64205,"ELEMENT_SET_NO":999,"REV_AT_EPOCH":4399,"BSTAR":0.00084344357,"MEAN_MOTION_DOT":0.00024714,"MEAN_MOTION_DDOT":0},{"OBJECT_NAME":"STARLINK-34311","OBJECT_ID":"2025-117D","EPOCH":"2026-03-06T08:51:33.927552","MEAN_MOTION":15.30202507,"ECCENTRICITY":0.00012269,"INCLINATION":53.161,"RA_OF_ASC_NODE":55.2877,"ARG_OF_PERICENTER":86.7881,"MEAN_ANOMALY":273.326,"EPHEMERIS_TYPE":0,"CLASSIFICATION_TYPE":"U","NORAD_CAT_ID":64206,"ELEMENT_SET_NO":999,"REV_AT_EPOCH":4404,"BSTAR":0.00058190468,"MEAN_MOTION_DOT":0.00016916,"MEAN_MOTION_DDOT":0},{"OBJECT_NAME":"STARLINK-34324","OBJECT_ID":"2025-117E","EPOCH":"2026-03-06T08:02:55.972320","MEAN_MOTION":15.30206173,"ECCENTRICITY":0.00012658,"INCLINATION":53.1592,"RA_OF_ASC_NODE":55.0779,"ARG_OF_PERICENTER":90.5737,"MEAN_ANOMALY":269.5409,"EPHEMERIS_TYPE":0,"CLASSIFICATION_TYPE":"U","NORAD_CAT_ID":64207,"ELEMENT_SET_NO":999,"REV_AT_EPOCH":4298,"BSTAR":0.0010179025,"MEAN_MOTION_DOT":0.00029915,"MEAN_MOTION_DDOT":0},{"OBJECT_NAME":"STARLINK-34327","OBJECT_ID":"2025-117F","EPOCH":"2026-03-06T06:07:36.326784","MEAN_MOTION":15.30215275,"ECCENTRICITY":0.00014713,"INCLINATION":53.1589,"RA_OF_ASC_NODE":55.2877,"ARG_OF_PERICENTER":86.6653,"MEAN_ANOMALY":273.4516,"EPHEMERIS_TYPE":0,"CLASSIFICATION_TYPE":"U","NORAD_CAT_ID":64208,"ELEMENT_SET_NO":999,"REV_AT_EPOCH":4296,"BSTAR":0.00088965416,"MEAN_MOTION_DOT":0.00026095,"MEAN_MOTION_DDOT":0},{"OBJECT_NAME":"STARLINK-33944","OBJECT_ID":"2025-117G","EPOCH":"2026-03-06T06:21:17.174304","MEAN_MOTION":15.30201269,"ECCENTRICITY":0.00013191,"INCLINATION":53.1581,"RA_OF_ASC_NODE":55.3554,"ARG_OF_PERICENTER":87.8811,"MEAN_ANOMALY":272.2341,"EPHEMERIS_TYPE":0,"CLASSIFICATION_TYPE":"U","NORAD_CAT_ID":64209,"ELEMENT_SET_NO":999,"REV_AT_EPOCH":4403,"BSTAR":0.00064375749,"MEAN_MOTION_DOT":0.00018756,"MEAN_MOTION_DDOT":0}]
